#bP2005  8 29  0  0  0.00000000      96 ORBIT IGb00 HLM  IGS
## 1338  86400.00000000   900.00000000 53611 0.0000000000000
+   12   R01R02R03R04R06R08R17R18R21R22R23R24  0  0  0  0  0
+          0  0  0  0  0  0  0  0  0  0  0  0  0  0  0  0  0
+          0  0  0  0  0  0  0  0  0  0  0  0  0  0  0  0  0
+          0  0  0  0  0  0  0  0  0  0  0  0  0  0  0  0  0
+          0  0  0  0  0  0  0  0  0  0  0  0  0  0  0  0  0
++         5  5  5  5  5  6  5  5  5  5  5  5  0  0  0  0  0
++         0  0  0  0  0  0  0  0  0  0  0  0  0  0  0  0  0
++         0  0  0  0  0  0  0  0  0  0  0  0  0  0  0  0  0
++         0  0  0  0  0  0  0  0  0  0  0  0  0  0  0  0  0
++         0  0  0  0  0  0  0  0  0  0  0  0  0  0  0  0  0
%R G  cc GPS ccc cccc cccc cccc cccc ccccc ccccc ccccc ccccc
%c cc cc ccc ccc cccc cccc cccc cccc ccccc ccccc ccccc ccccc
%f  0.0000000  0.000000000  0.00000000000  0.000000000000000
%f  0.0000000  0.000000000  0.00000000000  0.000000000000000
%i    0    0    0    0      0      0      0      0         0
%i    0    0    0    0      0      0      0      0         0
/* FINAL ORBIT COMBINATION FROM WEIGHTED AVERAGE OF:        
/* bkg brx cod esx iac mcc                                  
/*                                                          
/*                                                          
*  2005  8 29 13 45  0.00000000
PR01 -12531.560195  -4019.388111  21842.402310    -74.123751
PR02 -21771.999875   8213.630192  10363.795592 999999.999999
PR03 -17835.956296  16695.247554  -7487.888188 999999.999999
PR04  -4738.313998  14504.829641 -20555.751326 999999.999999
PR06  22052.562946  -9106.944671  -9074.846730 999999.999999
PR08   3721.965474 -14269.382234  20800.784401 999999.999999
PR17  -9383.264833   7338.935273  22548.801981 999999.999999
PR18  14676.429182  15040.399457  14654.455599 999999.999999
PR21   9075.930703  -7428.461291 -22637.102308    130.028849
PR22  -8386.387720 -14359.667737 -19340.669579 999999.999999
PR23 -21604.133534 -12875.464912  -4112.873142 999999.999999
PR24 -21747.454737  -4016.008469  12715.898590    137.067455
*  2005  8 29 14  0  0.00000000
PR01 -10271.868996  -5586.797626  22657.037236    -74.124798
PR02 -20484.853421   7491.775370  13128.118213 999999.999999
PR03 -18339.633629  17250.038497  -4393.351359 999999.999999
PR04  -6671.331464  15943.999969 -18874.606240 999999.999999
PR06  20919.451503  -8497.973696 -11943.347970 999999.999999
PR08   5687.917929 -15769.041954  19211.653299 999999.999999
PR17 -11884.712178   6242.543705  21684.532405 999999.999999
PR18  12964.042880  14139.223376  16979.318303 999999.999999
PR21  11590.577107  -6324.018724 -21809.079162    130.030016
PR22  -6157.232167 -13262.908777 -20899.747928 999999.999999
PR23 -21027.509844 -12454.206012  -7231.191116 999999.999999
PR24 -23070.125964  -4482.042935   9923.435083 999999.999999
*  2005  8 29 14 15  0.00000000
PR01  -8076.068080  -7362.286035  23031.070890    -74.125695
PR02 -18999.427877   6473.364137  15635.904358 999999.999999
PR03 -18508.757158  17589.660684  -1213.956021 999999.999999
PR04  -8315.618596  17379.851693 -16830.479754 999999.999999
PR06  19570.320583  -7597.806325 -14580.828633 999999.999999
PR08   7370.420563 -17269.276416  17248.915185 999999.999999
PR17 -14335.009684   5376.999156  20398.918095 999999.999999
PR18  10942.353955  13272.821489  18978.598886 999999.999999
PR21  14059.300126  -5451.137045 -20556.841693    130.031593
PR22  -3697.702889 -12273.424493 -22052.890002 999999.999999
PR23 -20070.089782 -11944.472613 -10208.674833 999999.999999
PR24 -24090.120755  -4726.236614   6938.256715 999999.999999
*  2005  8 29 14 30  0.00000000
PR01  -6002.167664  -9306.642817  22957.021710 999999.999999
PR02 -17377.202964   5151.708452  17837.650838 999999.999999
PR03 -18372.343403  17667.117389   1988.876985 999999.999999
PR04  -9650.850879  18751.227070 -14462.302332 999999.999999
PR06  18065.220902  -6395.847889 -16936.824360 999999.999999
PR08   8747.897673 -18708.611374  14950.700414 999999.999999
PR17 -16666.596158   4744.270306  18717.000659 999999.999999
PR18   8649.324264  12492.166044  20613.821181 999999.999999
PR21  16414.005211  -4812.543334 -18904.723647 999999.999999
PR22  -1061.902599 -11432.950190 -22777.738407 999999.999999
PR23 -18738.714349 -11403.703049 -12987.407280 999999.999999
PR24 -24765.385925  -4787.441246   3818.336119 999999.999999
*  2005  8 29 14 45  0.00000000
PR01  -4100.576158 -11370.938896  22436.132947    -74.127877
PR02 -15681.927652   3533.078733  19689.743244 999999.999999
PR03 -17969.587894  17443.801387   5153.334981 999999.999999
PR04 -10669.337857  19995.966973 -11815.296776 999999.999999
PR06  16466.966005  -4894.019185 -18966.456474 999999.999999
PR08   9811.549779 -20024.502660  12361.681020 999999.999999
PR17 -18814.269726   4334.068242  16671.511506 999999.999999
PR18   6133.192062  11841.239528  21853.370361 999999.999999
PR21  18588.783697  -4398.606034 -16884.849303 999999.999999
PR22   1688.568457 -10773.354509 -23060.252573 999999.999999
PR23 -17053.373514 -10888.047619 -15513.395021 999999.999999
PR24 -25064.696377  -4712.096146    624.263084 999999.999999
*  2005  8 29 15  0  0.00000000
PR01  -2412.174467 -13498.396051  21478.363825 999999.999999
PR02 -13976.942164   1636.747293  21155.368305 999999.999999
PR03 -17348.047042  16891.283514   8218.385296 999999.999999
PR04 -11376.115943  21053.514294  -8940.159922 999999.999999
PR06  14838.520492  -3106.891653 -20631.234934 999999.999999
PR08  10565.458835 -21155.975822   9532.201204 999999.999999
PR17 -20717.743246   4124.482435  14302.232541 999999.999999
PR18   3450.751818  11355.149953  22673.094273 999999.999999
PR21  20522.502531  -4187.937549 -14536.508167 999999.999999
PR22   4486.927766 -10315.324186 -22894.977652 999999.999999
PR23 -15046.549831 -10449.826632 -17737.618723 999999.999999
PR24 -24968.980479  -4552.014629  -2581.932950 999999.999999
*  2005  8 29 15 15  0.00000000
PR01   -966.801344 -15626.605240  20102.209112 999999.999999
PR02 -12322.524418   -505.528510  22205.293410 999999.999999
PR03 -16561.491775  15992.691496  11124.929186 999999.999999
PR04 -11788.518709  21867.483824  -5892.133294 999999.999999
PR06  13240.418103  -1061.302154 -21899.733523 999999.999999
PR08  11026.153201 -22046.220356   6517.295235 999999.999999
PR17 -22324.008194   4083.115876  11655.220590 999999.999999
PR18    665.284999  11058.622460  23056.776688 999999.999999
PR21  22161.208973  -4148.504060 -11905.388572 999999.999999
PR22   7263.744041 -10067.537050 -22285.147619 999999.999999
PR23 -12762.050235 -10135.168686 -19616.981399 999999.999999
PR24 -24472.155136  -4361.946928  -5737.988593 999999.999999
*  2005  8 29 15 30  0.00000000
PR01    217.786326 -17690.001899  18334.349473 999999.999999
PR02 -10773.376866  -2850.566475  22818.493267 999999.999999
PR03 -15667.522125  14743.622443  13816.917536 999999.999999
PR04 -11935.238870  22388.092450  -2729.976464 999999.999999
PR06  11728.313273   1204.533172 -22748.129821 999999.999999
PR08  11221.651754 -22645.028747   3375.612104 999999.999999
PR17 -23589.408888   4168.670370   8781.910606 999999.999999
PR18  -2155.778357  10964.929753  22996.473279 999999.999999
PR21  23460.249617  -4239.194801  -9042.685120 999999.999999
PR22   9949.584540 -10026.357362 -21242.620847 999999.999999
PR23 -10253.375839  -9981.929206 -21115.136372 999999.999999
PR24 -23581.435252  -4197.023327  -8782.616685 999999.999999
*  2005  8 29 15 45  0.00000000
PR01   1136.434464 -19622.494839  16209.138403 999999.999999
PR02  -9376.364471  -5345.321540  22982.607081 999999.999999
PR03 -14725.041281  13152.551234  16242.409016 999999.999999
PR04 -11854.917166  22574.347393    485.140518 999999.999999
PR06  10350.762646   3642.367375 -23160.604994 999999.999999
PR08  11190.028622 -22910.976845    168.268360 999999.999999
PR17 -24481.341041   4332.914082   5738.115120 999999.999999
PR18  -4943.376385  11075.307276  22492.702476 999999.999999
PR21  24386.014994  -4411.783432  -6004.097530 999999.999999
PR22  12477.667138 -10176.065727 -19787.649511 999999.999999
PR23  -7581.698609 -10017.976736 -22203.179798 999999.999999
PR24 -22317.104401  -4110.186275 -11656.697117 999999.999999
*  2005  8 29 16  0  0.00000000
PR01   1796.572069 -21360.138257  13767.935074 999999.999999
PR02  -8168.604141  -7928.884892  22694.213613 999999.999999
PR03 -13791.692999  11240.717239  18354.552379 999999.999999
PR04 -11594.313375  22395.898256   3690.806692 999999.999999
PR06   9147.322638   6195.677708 -23129.600448 999999.999999
PR08  10977.560482 -22813.252953  -3042.347841 999999.999999
PR17 -24979.504269   4522.947431   2582.939404 999999.999999
PR18  -7629.411494  11378.880419  21554.484941 999999.999999
PR21  24917.236721  -4613.197485  -2848.740807 999999.999999
PR22  14786.407872 -10489.613484 -17948.487149 999999.999999
PR23  -4813.529876 -10259.918457 -22860.195606 999999.999999
PR24 -20711.756095  -4149.720631 -14304.424932 999999.999999
*  2005  8 29 16 15  0.00000000
PR01   2217.651981 -22843.733953  11058.295769 999999.999999
PR02  -7175.990572 -10534.835215  21958.916079 999999.999999
PR03 -12921.367609   9041.492738  20112.475884 999999.999999
PR04 -11206.133195  21834.471144   6824.580398 999999.999999
PR06   8147.035933   8801.756517 -22655.930247 999999.999999
PR08  10636.536042 -22333.057865  -6193.797341 999999.999999
PR17 -25076.656821   4683.670935   -622.366437 999999.999999
PR18 -10149.322393  11853.111045  20199.227232 999999.999999
PR21  25045.783018  -4787.998697    362.011421    130.034174
PR22  16821.758881 -10929.869520 -15760.841748 999999.999999
PR23  -2018.177923 -10712.317494 -23073.643774 999999.999999
PR24 -18809.037296  -4356.986967 -16674.393236    137.047617
EOF
